data_source,key_id,name_full,org_pac_id,num_org_mem,pri_spec,sec_spec_all,adr_ln_1,adr_ln_2,City/Town,State,ZIP Code,Telephone Number,Cleaned Address,Latitude,Longitude
clinician_network,42206807.0,SIDNEY P SMITH MD PC,42206807.0,16.0,NURSE PRACTITIONER,,710 HOPEWELL DR,SUITE 108,CHARLESTON,SC,294927108,8005990067.0,710 HOPEWELL DR,39.231301851378475,-75.72057382547553
clinician_network,42389231.0,SOUTH GEORGIA RADIOLOGY ASSOCIATES LLC,42389231.0,36.0,DIAGNOSTIC RADIOLOGY,,30 LOWNDES POINTE DR,,CHARLESTON,SC,294033260,9122250934.0,30 LOWNDES POINTE DR,32.8126109,-79.9619459
clinician_network,42448169.0,UWH OF THE CAROLINAS PLLC,42448169.0,291.0,OBSTETRICS/GYNECOLOGY,,1027 PHYSICIANS DR,SUITE 110,CHARLESTON,SC,294145351,8437406700.0,1027 PHYSICIANS DR,33.571476,-81.761061
clinician_network,42448748.0,ARCIS HEALTHCARE LLC,42448748.0,30.0,ORTHOPEDIC SURGERY,SPORTS MEDICINE,1951 CLEMENTS FERRY RD,SUITE 100,CHARLESTON,SC,294928325,8437975050.0,1951 CLEMENTS FERRY RD,32.915668,-79.885178
clinician_network,42550386.0,PREMIER MEDICAL OF SC LLC,42550386.0,7.0,PHYSICIAN ASSISTANT,,354 FOLLY RD,SUITE 5,CHARLESTON,SC,294122594,8432252374.0,354 FOLLY RD,35.88141351148883,-76.66489934272242
clinician_network,244269413.0,INTENSIVE CARE CONSORTIUM INC,244269413.0,375.0,CRITICAL CARE (INTENSIVISTS),EMERGENCY MEDICINE,9330 MEDICAL PLAZA DR,,CHARLESTON,SC,294069104,8438474559.0,9330 MEDICAL PLAZA DR,32.9768967,-80.0737924
clinician_network,648513457.0,JOINT EFFORT MOVEMENT CENTER,648513457.0,2.0,PHYSICAL THERAPY,,1019 PHYSICIANS DR,,CHARLESTON,SC,294145746,8437904515.0,1019 PHYSICIANS DR,33.571476,-81.761061
clinician_network,749225324.0,"PROGRESSIVE PHYSICAL THERAPY, PA",749225324.0,29.0,PHYSICAL THERAPY,,3424 SHELBY RAY CT,,CHARLESTON,SC,294145838,8434027765.0,3424 SHELBY RAY CT,32.82003851938607,-80.0660334978704
clinician_network,749458420.0,THRIVE COUNSELING LLC,749458420.0,770.0,CLINICAL SOCIAL WORKER,,215 E BAY ST,SUITE 404,CHARLESTON,SC,294012637,8434804034.0,215 E BAY ST,33.91750511002414,-78.01731660832323
clinician_network,840388930.0,BARRIER ISLANDS PSYCHIATRY PA,840388930.0,4.0,PHYSICIAN ASSISTANT,PSYCHIATRY,1620 ASHLEY RIVER RD,,CHARLESTON,SC,294075983,8435568177.0,1620 ASHLEY RIVER RD,32.3979176,-93.708886
clinician_network,840466017.0,LIBERTY DOCTORS LLC,840466017.0,42.0,NURSE PRACTITIONER,HOSPICE/PALLIATIVE CARE,418 FOLLY RD,AB,CHARLESTON,SC,294122625,8432258320.0,418 FOLLY RD,35.88221579054723,-76.66490353324181
clinician_network,1052339132.0,"LOWCOUNTRY RADIATION ONCOLOGY, PA",1052339132.0,5.0,RADIATION ONCOLOGY,,316 CALHOUN ST,,CHARLESTON,SC,294011113,8437242140.0,316 CALHOUN ST,32.78266495,-79.94908809987882
clinician_network,1254654809.0,IMAGING PARTNERS PLLC,1254654809.0,8.0,DIAGNOSTIC RADIOLOGY,,4 CARRIAGE LN,SUITE 108,CHARLESTON,SC,294076048,8284303511.0,4 CARRIAGE LN,42.042139899999995,-70.74815774971893
clinician_network,1355498338.0,"ISLAND P.T.,LLC",1355498338.0,3.0,PHYSICAL THERAPY,,1245 SAVANNAH HWY,,CHARLESTON,SC,294077826,8437665595.0,1245 SAVANNAH HWY,32.734337777777775,-81.62086766666667
clinician_network,1557268950.0,MEDICAL UNIVERSITY HOSPITAL AUTHORITY,1557268950.0,173.0,CERTIFIED REGISTERED NURSE ANESTHETIST (CRNA),,171 ASHLEY AVE,,CHARLESTON,SC,294258908,8437921414.0,171 ASHLEY AVE,32.785544099999996,-79.95170814565597
clinician_network,1557523917.0,REMEDY INTERNAL MEDICINE AND WELLNESS CENTER P A,1557523917.0,2.0,INTERNAL MEDICINE,PEDIATRIC MEDICINE,109 WAPPOO CREEK DR,2A,CHARLESTON,SC,294122138,8437375206.0,109 WAPPOO CREEK DR,32.76330056742883,-79.97638926971531
clinician_network,1658381819.0,CHARLESTON NEUROSCIENCES INSTITUTE,1658381819.0,6.0,OPHTHALMOLOGY,,3531 MARY ADER AVE,SUITE D,CHARLESTON,SC,294145896,8437634466.0,3531 MARY ADER AVE,32.820726300000004,-80.06514055433334
clinician_network,1658540505.0,TRI-COUNTY SURGICAL SPECIALISTS LLC,1658540505.0,30.0,PHYSICIAN ASSISTANT,CRITICAL CARE (INTENSIVISTS),9330 MEDICAL PLAZA DR,,CHARLESTON,SC,294069104,8438474000.0,9330 MEDICAL PLAZA DR,32.9768967,-80.0737924
clinician_network,1759373079.0,CHARLESTON PULMONARY ASSOCIATES PA,1759373079.0,10.0,PULMONARY DISEASE,CRITICAL CARE (INTENSIVISTS),316 CALHOUN ST,,CHARLESTON,SC,294011113,8437242000.0,316 CALHOUN ST,32.78266495,-79.94908809987882
clinician_network,1850714379.0,BERKELEY REHABILITATION LLC,1850714379.0,5.0,PHYSICAL THERAPY,,1954 ASHLEY RIVER RD,SUITE E,CHARLESTON,SC,294074904,8437611480.0,1954 ASHLEY RIVER RD,34.9611989,-80.7373116
clinician_network,2062462898.0,"CAROLINA DERMATOLOGY CLINIC, PA",2062462898.0,3.0,PHYSICIAN ASSISTANT,,933 SAINT ANDREWS BLVD,,CHARLESTON,SC,294077138,8437669868.0,933 SAINT ANDREWS BLVD,32.792347076629014,-79.98926370919635
clinician_network,2264420215.0,X-RAY PHYSICIANS OF SHELBYVILLE PC,2264420215.0,46.0,DIAGNOSTIC RADIOLOGY,,2275 PORTSIDE WAY,,CHARLESTON,SC,294079657,8669420799.0,2275 PORTSIDE WAY,32.825527,-80.02557
clinician_network,2264847128.0,REGIONAL IMAGING ENM LLC,2264847128.0,10.0,DIAGNOSTIC RADIOLOGY,,484 KING ST,SUITE 205,CHARLESTON,SC,294036229,8666114279.0,484 KING ST,44.9912211,-64.1319206
clinician_network,2365403698.0,MEDICAL UNIVERSITY OF SOUTH CAROLINA,2365403698.0,6.0,ORAL SURGERY,PATHOLOGY,171 ASHLEY AVE,,CHARLESTON,SC,294258908,8437924185.0,171 ASHLEY AVE,32.785544099999996,-79.95170814565597
clinician_network,2466503883.0,"RHEUMATOLOGY ASSOCIATES, P.A.",2466503883.0,5.0,RHEUMATOLOGY,,14 FARMFIELD AVE,SUITE E,CHARLESTON,SC,294077757,8435716067.0,14 FARMFIELD AVE,32.77590209574582,-79.99328040658183
clinician_network,2466723028.0,"PPCP SPECIALTY PHYSICIANS , LLC",2466723028.0,18.0,NEUROLOGY,,9313 MEDICAL PLAZA DR,SUITE 310,CHARLESTON,SC,294069197,8436956071.0,9313 MEDICAL PLAZA DR,32.97435035419094,-80.07396399238011
clinician_network,2466781547.0,EYE ASSOCIATES OF CHARLESTON INC,2466781547.0,4.0,OPTOMETRY,,2070 SAM RITTENBERG BLVD,SUITE 412,CHARLESTON,SC,294074605,8435568844.0,2070 SAM RITTENBERG BLVD,32.7988135,-80.0308441
clinician_network,2466841655.0,TIDEWATER DOCTORS LLC,2466841655.0,3.0,INTERNAL MEDICINE,,2270 ASHLEY CROSSING DR,SUITE 155,CHARLESTON,SC,294145749,8439905866.0,2270 ASHLEY CROSSING DR,32.2742614,-80.9253747
clinician_network,2769723162.0,EMPOWERME REHABILITATION LLC,2769723162.0,242.0,QUALIFIED SPEECH LANGUAGE PATHOLOGIST,,2333 ASHLEY RIVER RD,,CHARLESTON,SC,294144755,8445027996.0,2333 ASHLEY RIVER RD,34.9611989,-80.7373116
clinician_network,2860726981.0,IMRAD OF VIRGINIA PLLC,2860726981.0,73.0,DIAGNOSTIC RADIOLOGY,,502 SHEM BUTLER CT,,CHARLESTON,SC,294147154,8335456988.0,502 SHEM BUTLER CT,32.85063377736449,-80.06491684261006
clinician_network,2860804796.0,CENTERWELL SENIOR PRIMARY CARE SC PC,2860804796.0,32.0,PHYSICIAN ASSISTANT,,1401 SAM RITTENBERG BLVD,SUITE 6,CHARLESTON,SC,294075031,8439735393.0,1401 SAM RITTENBERG BLVD,32.813067,-79.9963831
clinician_network,3173437472.0,CHARLESTON GASTROENTEROLOGY SPECIALISTS,3173437472.0,78.0,PHYSICIAN ASSISTANT,INTERNAL MEDICINE,1962 CHARLIE HALL BLVD,,CHARLESTON,SC,294145837,8437228000.0,1962 CHARLIE HALL BLVD,32.8158677541285,-80.04248798532439
clinician_network,3173741618.0,"MYEYEDR OPTOMETRY OF SOUTH CAROLINA, LLC",3173741618.0,17.0,OPTOMETRY,,88 FOLLY RD BLVD,,CHARLESTON,SC,294077551,8435739944.0,88 FOLLY RD BLVD,32.7791996,-79.9707079
clinician_network,3375454648.0,AGILITAS USA INC,3375454648.0,659.0,PHYSICAL THERAPY,,3879 W ASHLEY CIR,UNIT 700,CHARLESTON,SC,294149272,8436280121.0,3879 W ASHLEY CIR,32.8262419,-80.0770987
clinician_network,3375455884.0,COLUMBUS DIAGNOSTIC CENTER INC,3375455884.0,37.0,DIAGNOSTIC RADIOLOGY,,727 JIM ISLE DR,,CHARLESTON,SC,294124726,8434691370.0,727 JIM ISLE DR,32.74407,-79.951
clinician_network,3375849946.0,RSFH - ATI PHYSICAL THERAPY LLC,3375849946.0,76.0,PHYSICAL THERAPY,,325 FOLLY RD,SUITE 107,CHARLESTON,SC,294122507,8437620147.0,325 FOLLY RD,35.88104987205631,-76.66489321240249
clinician_network,3476855420.0,SOUTHEASTERN HOSPITALIST SERVICES PC,3476855420.0,282.0,FAMILY PRACTICE,HOSPITALIST,9330 MEDICAL PLAZA DR,,CHARLESTON,SC,294069104,8438474559.0,9330 MEDICAL PLAZA DR,32.9768967,-80.0737924
clinician_network,3476961368.0,GROW HEALTHCARE GROUP PA,3476961368.0,311.0,CLINICAL SOCIAL WORKER,,170 MEETING ST,SUITE 110,CHARLESTON,SC,294013178,7046101304.0,170 MEETING ST,33.010193772951844,-80.15047818481507
clinician_network,3577629088.0,COASTAL CAROLINA PRIMARY CARE LLC,3577629088.0,27.0,OBSTETRICS/GYNECOLOGY,,9279 MEDICAL PLAZA DR,SUITE A,CHARLESTON,SC,294069141,8435692900.0,9279 MEDICAL PLAZA DR,32.97473161573412,-80.07302134239472
clinician_network,3577821958.0,HYPER HEALING,3577821958.0,12.0,NURSE PRACTITIONER,,1930 CHARLIE HALL BLVD,,CHARLESTON,SC,294145837,8037674465.0,1930 CHARLIE HALL BLVD,32.81577377882156,-80.04164657311954
clinician_network,3678836558.0,SAVANNAH MULTISPECIALTY ASSOCIATES LLC,3678836558.0,114.0,RADIATION ONCOLOGY,,9330 MEDICAL PLAZA DR,,CHARLESTON,SC,294069104,8438474946.0,9330 MEDICAL PLAZA DR,32.9768967,-80.0737924
clinician_network,3779726468.0,BENCHMARK HEALTHCARE SERVICES LLC,3779726468.0,77.0,PHYSICAL THERAPY,,334 E BAY ST,UNIT J,CHARLESTON,SC,294011592,8432036562.0,334 E BAY ST,33.918522580918435,-78.01504174749961
clinician_network,4082079496.0,UROLOGY ASSOCIATES OF CHARLESTON LLC,4082079496.0,9.0,PHYSICIAN ASSISTANT,,2093 HENRY TECKLENBURG DR,SUITE 318E,CHARLESTON,SC,294145741,8438848045.0,2093 HENRY TECKLENBURG DR,32.803347473899294,-80.03951173735831
clinician_network,4082607361.0,ANESTHESIA ASSOCIATES OF CHARLESTON PA,4082607361.0,35.0,ANESTHESIOLOGY,CRITICAL CARE (INTENSIVISTS),1064 GARDNER RD,SUITE 112,CHARLESTON,SC,294075768,8437233441551.0,1064 GARDNER RD,30.259519,-97.68224595833334
clinician_network,4082662234.0,"CHARLESTON ENT ASSOCIATES, LLC",4082662234.0,66.0,DIAGNOSTIC RADIOLOGY,PEDIATRIC MEDICINE,2295 HENRY TECKLENBURG DR,,CHARLESTON,SC,294147801,8437667103.0,2295 HENRY TECKLENBURG DR,32.80401221104473,-80.04119110766236
clinician_network,4183056344.0,BLUE RIDGE SPEECH AND VOICE,4183056344.0,2.0,QUALIFIED SPEECH LANGUAGE PATHOLOGIST,,891 PORTABELLA LN,,CHARLESTON,SC,294128410,8282223824.0,891 PORTABELLA LN,32.724447,-79.931069
clinician_network,4183517097.0,DIAGNOSTIC RADIOLOGY AND IMAGING LLC,4183517097.0,97.0,DIAGNOSTIC RADIOLOGY,,502 SHEM BUTLER CT,,CHARLESTON,SC,294147154,8555044544.0,502 SHEM BUTLER CT,32.85063377736449,-80.06491684261006
clinician_network,4284547209.0,RADIOLOGISTS ASSOCIATED IN DULUTH LTD,4284547209.0,40.0,DIAGNOSTIC RADIOLOGY,INTERVENTIONAL RADIOLOGY,8 GEORGE ST,,CHARLESTON,SC,294011524,2187223700.0,8 GEORGE ST,55.9537993,-3.1947037
clinician_network,4385653054.0,"NATIONAL ALLERGY ASTHMA AND URTICARIA CENTERS OF CHARLESTON, PA",4385653054.0,7.0,ALLERGY/IMMUNOLOGY,INTERNAL MEDICINE,7555 NORTHSIDE DR,,CHARLESTON,SC,294204211,8437978162.0,7555 NORTHSIDE DR,32.36906196585653,-90.42819838738708
clinician_network,4587557731.0,CAROLINA FAMILY CARE INC,4587557731.0,63.0,NURSE PRACTITIONER,,2060 SAM RITTENBERG BLVD,,CHARLESTON,SC,294074616,8438763151.0,2060 SAM RITTENBERG BLVD,32.7935492,-80.029169
clinician_network,4688578826.0,PALMETTO INFUSION SERVICES LLC,4688578826.0,46.0,FAMILY PRACTICE,EMERGENCY MEDICINE,1027 PHYSICIANS DR,SUITE 220,CHARLESTON,SC,294145352,8037717740.0,1027 PHYSICIANS DR,33.571476,-81.761061
clinician_network,4688671365.0,COASTAL INPATIENT PHYSICIANS LLC,4688671365.0,15.0,PHYSICIAN ASSISTANT,PSYCHIATRY,9330 MEDICAL PLAZA DR,,CHARLESTON,SC,294069104,8438474372.0,9330 MEDICAL PLAZA DR,32.9768967,-80.0737924
clinician_network,4688674807.0,"PALMETTO BEHAVIORAL HEALTH SOLUTIONS, LLC",4688674807.0,2.0,NURSE PRACTITIONER,,2777 SPEISSEGGER DR,,CHARLESTON,SC,294058229,8432667080.0,2777 SPEISSEGGER DR,32.83940835,-79.97440416995414
clinician_network,4789640673.0,CHARLESTON PATHOLOGY PA,4789640673.0,11.0,PATHOLOGY,,316 CALHOUN ST,,CHARLESTON,SC,294011113,8437242260.0,316 CALHOUN ST,32.78266495,-79.94908809987882
clinician_network,4789949223.0,NEWTON FAMILY MEDICINE LLC,4789949223.0,2.0,FAMILY PRACTICE,,1477 TOBIAS GADSON BLVD,,CHARLESTON,SC,294074794,8437667696.0,1477 TOBIAS GADSON BLVD,32.809473343392,-80.0303302411236
clinician_network,4880009943.0,RIVIA MEDICAL PLLC,4880009943.0,41.0,NURSE PRACTITIONER,,460 KING ST,SUITE 200,CHARLESTON,SC,294036229,2122031773.0,460 KING ST,57.16094705,-2.0960793804937423
clinician_network,4880508068.0,PALMETTO PRIMARY CARE PHYSICIANS LLC,4880508068.0,127.0,NURSE PRACTITIONER,,5325 APPIAN WAY,,CHARLESTON,SC,294207234,8436956071.0,5325 APPIAN WAY,41.12926336976751,-81.710524526615
clinician_network,4981608817.0,VIRTUAL RADIOLOGIC PROFESSIONALS LLC,4981608817.0,350.0,DIAGNOSTIC RADIOLOGY,INTERVENTIONAL RADIOLOGY,8 GEORGE ST,,CHARLESTON,SC,294011524,9525951100.0,8 GEORGE ST,55.9537993,-3.1947037
clinician_network,4981660479.0,COASTAL VASCULAR AND VEIN CENTER PA,4981660479.0,14.0,VASCULAR SURGERY,GENERAL SURGERY,1327 ASHLEY RIVER RD B,,CHARLESTON,SC,294075384,8435774551.0,1327 ASHLEY RIVER RD B,37.212424,-77.521117
clinician_network,4981943818.0,CENTERWAY BEHAVIORAL HEALTH LLC,4981943818.0,4.0,PSYCHIATRY,,2079 CHARLIE HALL BLVD,,CHARLESTON,SC,294145834,8439745622.0,2079 CHARLIE HALL BLVD,32.81534305229072,-80.04384084268628
clinician_network,5092080671.0,SOUTH CAROLINA POST ACUTE MEDICAL SERVICES 1 PC,5092080671.0,5.0,PHYSICIAN ASSISTANT,FAMILY PRACTICE,2333 ASHLEY RIVER RD,,CHARLESTON,SC,294144755,8437669898.0,2333 ASHLEY RIVER RD,34.9611989,-80.7373116
clinician_network,5092774034.0,TRIDENT DERMATOLOGY PA,5092774034.0,7.0,DERMATOLOGY,,9295 MEDICAL PLAZA DR,,CHARLESTON,SC,294069137,8437973960.0,9295 MEDICAL PLAZA DR,32.97457924716439,-80.07339372597399
clinician_network,5092981605.0,THE BREAST PLACE LLC,5092981605.0,3.0,GENERAL SURGERY,,2085 HENRY TECKLENBURG DR,SUITE 320,CHARLESTON,SC,294147713,8437242000.0,2085 HENRY TECKLENBURG DR,32.80336027151722,-80.03954198382343
clinician_network,5193620714.0,ACS PRIMARY CARE PHYSICIANS - SOUTHEAST PC,5193620714.0,335.0,EMERGENCY MEDICINE,PEDIATRIC MEDICINE,9330 MEDICAL PLAZA DR,,CHARLESTON,SC,294069104,8437977000.0,9330 MEDICAL PLAZA DR,32.9768967,-80.0737924
clinician_network,5193772747.0,JOHN E EMMEL MD PC,5193772747.0,11.0,NURSE PRACTITIONER,,27 GAMECOCK AVE,SUITE 201,CHARLESTON,SC,294073398,8431632815.0,27 GAMECOCK AVE,32.82054999352446,-79.99343264057353
clinician_network,5193874824.0,ROPER SAINT FRANCIS PHYSICIANS NETWORK,5193874824.0,424.0,PHYSICIAN ASSISTANT,SPORTS MEDICINE,316 CALHOUN ST,,CHARLESTON,SC,294011113,8439588877.0,316 CALHOUN ST,32.78266495,-79.94908809987882
clinician_network,5193964419.0,CHARLESTON HAND THERAPY CENTER,5193964419.0,3.0,OCCUPATIONAL THERAPY,,1483 TOBIAS GADSON BLVD,SUITE 205B,CHARLESTON,SC,294074641,8437666494.0,1483 TOBIAS GADSON BLVD,32.809275070141204,-80.03042007354375
clinician_network,5294631545.0,TRIDENT ANESTHESIA GROUP LLC,5294631545.0,98.0,ANESTHESIOLOGY,INTERNAL MEDICINE,9330 MEDICAL PLAZA DR,,CHARLESTON,SC,294069104,8437977000.0,9330 MEDICAL PLAZA DR,32.9768967,-80.0737924
clinician_network,5496757692.0,ANESTHESIA SERVICES OF CHARLESTON,5496757692.0,4.0,ANESTHESIOLOGY,,1849 SAVAGE RD,,CHARLESTON,SC,294074726,8435762600.0,1849 SAVAGE RD,32.80668788604135,-80.02572552420978
clinician_network,5698689693.0,LOWCOUNTRY DERMATOLOGY ASSOCIATES,5698689693.0,2.0,PHYSICIAN ASSISTANT,,8 FARMFIELD AVE,SUITE D,CHARLESTON,SC,294077779,8435567251.0,8 FARMFIELD AVE,32.77589954787291,-79.99336420329091
clinician_network,5890127344.0,24 ON PHYSICIANS OF SC LLC,5890127344.0,100.0,INTERNAL MEDICINE,HOSPITALIST,316 CALHOUN ST,,CHARLESTON,SC,294011113,8437242901.0,316 CALHOUN ST,32.78266495,-79.94908809987882
clinician_network,6002279320.0,"COASTAL PLAY 2 GROW THERAPY, LLC",6002279320.0,2.0,PHYSICAL THERAPY,,2387 LANTERN ST,,CHARLESTON,SC,294144850,8435684786.0,2387 LANTERN ST,52.2119955,-113.8321398
clinician_network,6002907359.0,"DR. ALICE C. SUN AND ASSOCIATES, PC",6002907359.0,2.0,OPTOMETRY,,1231 FOLLY RD,,CHARLESTON,SC,294124105,8437953400.0,1231 FOLLY RD,32.720598949999996,-79.96772305979401
clinician_network,6103951116.0,COASTAL VISION CARE LLC,6103951116.0,3.0,OPTOMETRY,,3951 W ASHLEY CIR,,CHARLESTON,SC,294149156,8438520075.0,3951 W ASHLEY CIR,32.8214833,-80.0812945
clinician_network,6204125107.0,CHARLESTON COUNSELING CENTER PC,6204125107.0,68.0,NURSE PRACTITIONER,,1422 ASHLEY RIVER RD,,CHARLESTON,SC,294075306,8435011099.0,1422 ASHLEY RIVER RD,34.9611989,-80.7373116
clinician_network,6204731300.0,"DOCTORS CARE, PA",6204731300.0,195.0,FAMILY PRACTICE,OSTEOPATHIC MANIPULATIVE MEDICINE,3424 SHELBY RAY CT,,CHARLESTON,SC,294145838,8434026834.0,3424 SHELBY RAY CT,32.82003851938607,-80.0660334978704
clinician_network,6204882053.0,MIGNANO FAMILY CHIROPRACTIC CENTER LLC,6204882053.0,2.0,CHIROPRACTIC,,914 FOLLY RD,SUITE D,CHARLESTON,SC,294123900,8437622386.0,914 FOLLY RD,35.88769969422285,-76.66802929517314
clinician_network,6305758574.0,UNIVERSITY MEDICAL ASSOCIATES,6305758574.0,1313.0,COLORECTAL SURGERY (PROCTOLOGY),GENERAL SURGERY,171 ASHLEY AVE,,CHARLESTON,SC,294258908,8437921414.0,171 ASHLEY AVE,32.785544099999996,-79.95170814565597
clinician_network,6406033950.0,"PINNACLE PHYSICIANS, LLC",6406033950.0,6.0,NURSE PRACTITIONER,,316 CALHOUN ST,,CHARLESTON,SC,294011113,8554547095.0,316 CALHOUN ST,32.78266495,-79.94908809987882
clinician_network,6406869247.0,LOWCOUNTRY UROLOGY CLINICS PA,6406869247.0,15.0,UROLOGY,,641 SAINT ANDREWS BLVD,,CHARLESTON,SC,294077165,8437664070.0,641 SAINT ANDREWS BLVD,30.08867595121951,-90.47208491463414
clinician_network,6507754983.0,COLUMBUS RADIOLOGY CORP,6507754983.0,268.0,DIAGNOSTIC RADIOLOGY,,18 POULNOT LN,,CHARLESTON,SC,294011911,7062550030.0,18 POULNOT LN,32.777761,-79.938575
clinician_network,6507922093.0,W M WOODWARD MD PA,6507922093.0,3.0,PHYSICAL THERAPY,"ADDICTION MEDICINE, PAIN MANAGEMENT",1124 SAM RITTENBERG BLVD,SUITE 1,CHARLESTON,SC,294073362,8435563462.0,1124 SAM RITTENBERG BLVD,32.81770445970765,-79.99366727908358
clinician_network,6800129271.0,PERRY DERMATOLOGY AND DERMATOPATHOLOGY,6800129271.0,3.0,DERMATOLOGY,PATHOLOGY,48 FOLLY RD BLVD,,CHARLESTON,SC,294077507,8437692100.0,48 FOLLY RD BLVD,32.7791996,-79.9707079
clinician_network,6800700162.0,ROPER RADIOLOGISTS PA,6800700162.0,30.0,DIAGNOSTIC RADIOLOGY,NUCLEAR MEDICINE,316 CALHOUN ST,,CHARLESTON,SC,294011113,8437242161.0,316 CALHOUN ST,32.78266495,-79.94908809987882
clinician_network,6800994807.0,SC HOUSE CALLS INC,6800994807.0,371.0,INTERNAL MEDICINE,,2030 CHARLIE HALL BLVD,,CHARLESTON,SC,294145830,8004910909.0,2030 CHARLIE HALL BLVD,32.815335165708674,-80.04418329719186
clinician_network,7012937105.0,ANESTHESIA CARE SERVICES PA,7012937105.0,63.0,CERTIFIED REGISTERED NURSE ANESTHETIST (CRNA),,1606 ASHLEY RIVER RD,,CHARLESTON,SC,294075902,8437630503.0,1606 ASHLEY RIVER RD,32.3979176,-93.708886
clinician_network,7113024480.0,OHIO IMAGING ASSOCIATES INC,7113024480.0,6.0,DIAGNOSTIC RADIOLOGY,,484 KING ST,SUITE 205,CHARLESTON,SC,294036229,8444665613.0,484 KING ST,44.9912211,-64.1319206
clinician_network,7113372236.0,REGIONAL IMAGING ASSOCIATES,7113372236.0,12.0,DIAGNOSTIC RADIOLOGY,,42 SAVAGE ST,,CHARLESTON,SC,294012410,8444665613.0,42 SAVAGE ST,32.77459174233344,-79.93825037279592
clinician_network,7113822420.0,ALLERGY PARTNERS PLLC,7113822420.0,150.0,ALLERGY/IMMUNOLOGY,,2090 CHARLIE HALL BLVD,SUITE 301,CHARLESTON,SC,294148200,8435569588.0,2090 CHARLIE HALL BLVD,32.8145297,-80.04526039503494
clinician_network,7214084870.0,COMPASS CAROLINA HEALTH SYSTEMS PA,7214084870.0,5.0,CLINICAL SOCIAL WORKER,ADDICTION MEDICINE,1483 TOBIAS GADSON BLVD,SUITE 201,CHARLESTON,SC,294074796,8437455153.0,1483 TOBIAS GADSON BLVD,32.809275070141204,-80.03042007354375
clinician_network,7315026879.0,EYECARE PHYSICIANS AND SURGEONS LLC,7315026879.0,2.0,OPHTHALMOLOGY,,125 DOUGHTY ST,SUITE 330,CHARLESTON,SC,294035740,8437227705.0,125 DOUGHTY ST,32.78418639255284,-79.95047910260625
clinician_network,7315342185.0,LEXINGTON RADIOLOGY ASSOCIATES,7315342185.0,31.0,PHYSICIAN ASSISTANT,,230 RUTLEDGE AVE,APT A,CHARLESTON,SC,294035380,8004756236.0,230 RUTLEDGE AVE,40.064150237609034,-76.29900630524034
clinician_network,7315349966.0,"REGIONAL IMAGING, PC",7315349966.0,9.0,DIAGNOSTIC RADIOLOGY,,42 SAVAGE ST,,CHARLESTON,SC,294012410,8772232725.0,42 SAVAGE ST,32.77459174233344,-79.93825037279592
clinician_network,7618074899.0,MEDCARE EXPRESS - NORTH CHARLESTON LLC,7618074899.0,61.0,PHYSICIAN ASSISTANT,GENERAL PRACTICE,1850 SAM RITTENBERG BLVD,,CHARLESTON,SC,294074936,8437936093.0,1850 SAM RITTENBERG BLVD,32.800007,-80.020356
clinician_network,7618871245.0,SPECTRUM HEALTHCARE PARTNERS PA,7618871245.0,262.0,DIAGNOSTIC RADIOLOGY,,2275 PORTSIDE WAY,,CHARLESTON,SC,294079657,2604698223.0,2275 PORTSIDE WAY,32.825527,-80.02557
clinician_network,7618884230.0,STATE UNIVERSITY OF IOWA,7618884230.0,1462.0,OBSTETRICS/GYNECOLOGY,,177 CONGRESS ST,,CHARLESTON,SC,294034423,2055294554.0,177 CONGRESS ST,42.7665754,-73.7014429
clinician_network,7618956392.0,KANAWHA VALLEY RADIOLOGISTS INCORPORATED,7618956392.0,9.0,DIAGNOSTIC RADIOLOGY,,105 E BAY ST,,CHARLESTON,SC,294012544,8775747116.0,105 E BAY ST,33.9171925,-78.01873649999999
clinician_network,7618963638.0,"JOSEPH M STILL BURN CENTERS, INC",7618963638.0,53.0,PHYSICIAN ASSISTANT,,9330 MEDICAL PLAZA DR,,CHARLESTON,SC,294069104,7068639595.0,9330 MEDICAL PLAZA DR,32.9768967,-80.0737924
clinician_network,7719953942.0,"CAROLINA NEUROLOGICAL CLINIC, L.L.P.",7719953942.0,2.0,NEUROLOGY,,3531 MARY ADER AVE,SUITE A,CHARLESTON,SC,294145896,8437230202.0,3531 MARY ADER AVE,32.820726300000004,-80.06514055433334
clinician_network,7719978444.0,PALMETTO DIGESTIVE DISEASE PA,7719978444.0,10.0,PHYSICIAN ASSISTANT,INTERNAL MEDICINE,2073 CHARLIE HALL BLVD,,CHARLESTON,SC,294145834,8435710643.0,2073 CHARLIE HALL BLVD,32.8154442184854,-80.04363959170459
clinician_network,7810978616.0,PRIVATE THERAPY SERVICES LLC,7810978616.0,13.0,PHYSICAL THERAPY,,445 SAVANNAH HWY,,CHARLESTON,SC,294077207,8437662121.0,445 SAVANNAH HWY,32.77954835839117,-79.97264634881557
clinician_network,7911327267.0,CHARLESTON OT LLC,7911327267.0,2.0,OCCUPATIONAL THERAPY,,1640 ASHLEY HALL RD,,CHARLESTON,SC,294073824,7047216252.0,1640 ASHLEY HALL RD,32.80980351003383,-80.0101147107786
clinician_network,7911933304.0,ARTICULARIS HEALTHCARE GROUP INC,7911933304.0,49.0,NURSE PRACTITIONER,,2291 HENRY TECKLENBURG DR,,CHARLESTON,SC,294147801,8437936985.0,2291 HENRY TECKLENBURG DR,32.80411242208945,-80.04145221532471
clinician_network,8022272848.0,"PARAGON OUTPATIENT REHABILITATION SERVICES, LLC",8022272848.0,219.0,OCCUPATIONAL THERAPY,,509 STANDARD WAY,THERAPY ROOM,CHARLESTON,SC,294122397,8436281130.0,509 STANDARD WAY,32.76076902040816,-79.98226875510204
clinician_network,8123102563.0,DRAISIN VISION GROUP PA,8123102563.0,5.0,OPTOMETRY,,1470 TOBIAS GADSON BLVD,SUITE 115,CHARLESTON,SC,294074835,8435562020.0,1470 TOBIAS GADSON BLVD,32.80960987698599,-80.03000424081941
clinician_network,8123385143.0,"BROAD RIVER PHYSICIANS GROUP, LLC",8123385143.0,59.0,EMERGENCY MEDICINE,CRITICAL CARE (INTENSIVISTS),316 CALHOUN ST,,CHARLESTON,SC,294011113,8437242901.0,316 CALHOUN ST,32.78266495,-79.94908809987882
clinician_network,8325008717.0,BON SECOURS ST FRANCIS XAVIER HOSPITAL INC,8325008717.0,170.0,PHYSICIAN ASSISTANT,CRITICAL CARE (INTENSIVISTS),316 CALHOUN ST,,CHARLESTON,SC,294011113,8435772276.0,316 CALHOUN ST,32.78266495,-79.94908809987882
clinician_network,8426464736.0,"COASTAL PEDIATRIC ASSOCIATES, P.A.",8426464736.0,3.0,PEDIATRIC MEDICINE,,2067 CHARLIE HALL BLVD,,CHARLESTON,SC,294145834,8435732535.0,2067 CHARLIE HALL BLVD,32.815528421336595,-80.04343073599021
clinician_network,8426958919.0,ROPER HOSPITAL INC,8426958919.0,35.0,NURSE PRACTITIONER,CRITICAL CARE (INTENSIVISTS),316 CALHOUN ST,,CHARLESTON,SC,294011113,8437243324.0,316 CALHOUN ST,32.78266495,-79.94908809987882
clinician_network,8527004902.0,DERMATOLOGY AND LASER CENTER OF CHARLESTON PA,8527004902.0,7.0,PHYSICIAN ASSISTANT,DERMATOLOGY,2180 HENRY TECKLENBURG DR,,CHARLESTON,SC,294145798,8435568886.0,2180 HENRY TECKLENBURG DR,32.810301876964196,-80.04508079345828
clinician_network,8527049865.0,DERMATOLOGY ASSOCIATES LLC,8527049865.0,16.0,DERMATOLOGY,,2180 HENRY TECKLENBURG DR,,CHARLESTON,SC,294145798,8435568886.0,2180 HENRY TECKLENBURG DR,32.810301876964196,-80.04508079345828
clinician_network,8527070291.0,LOWCOUNTRY INFECTIOUS DISEASES PA,8527070291.0,13.0,NURSE PRACTITIONER,INFECTIOUS DISEASE,1938 CHARLIE HALL BLVD,UNIT B,CHARLESTON,SC,294146099,8434020227.0,1938 CHARLIE HALL BLVD,32.815817503354715,-80.04185418187349
clinician_network,8527126861.0,MINUTECLINIC DIAGNOSTIC SOUTH CAROLINA LLC,8527126861.0,125.0,NURSE PRACTITIONER,,59 GEORGE ST,,CHARLESTON,SC,294011422,8663892727.0,59 GEORGE ST,-46.3634071,168.0079956
clinician_network,8527133370.0,AVONDALE EYE CARE,8527133370.0,3.0,OPTOMETRY,,1251 SAVANNAH HWY,,CHARLESTON,SC,294077826,8437632270.0,1251 SAVANNAH HWY,32.73432847474748,-81.62085003030303
clinician_network,8527458116.0,TRIDENT DENTAL ASSOCIATES LLC,8527458116.0,2.0,DENTIST,PROSTHODONTICS,9228 MEDICAL PLAZA DR,,CHARLESTON,SC,294069125,8437977000.0,9228 MEDICAL PLAZA DR,32.97521383750237,-80.07183297070029
clinician_network,8628332061.0,CONCORD RADIOLOGY PLLC,8628332061.0,55.0,DIAGNOSTIC RADIOLOGY,,190 QUEEN ST,,CHARLESTON,SC,294011946,8882640330.0,190 QUEEN ST,44.8913633,-75.9958709
clinician_network,8729074901.0,GREENSBORO RADIOLOGY PA,8729074901.0,210.0,DIAGNOSTIC RADIOLOGY,,502 SHEM BUTLER CT,,CHARLESTON,SC,294147154,,502 SHEM BUTLER CT,32.85063377736449,-80.06491684261006
clinician_network,8729167309.0,CAROLINA CATARACT AND VISION CENTER,8729167309.0,9.0,OPHTHALMOLOGY,,3531 MARY ADER AVE,SUITE C,CHARLESTON,SC,294145896,8437973676.0,3531 MARY ADER AVE,32.820726300000004,-80.06514055433334
clinician_network,8729401625.0,BEST PHYSICAL THERAPY LLC,8729401625.0,39.0,PHYSICAL THERAPY,,848 FOLLY RD,,CHARLESTON,SC,294123435,9197916678.0,848 FOLLY RD,35.88740869173431,-76.66700081928576
clinician_network,8729992060.0,CRITICAL CARE SERVICES PC,8729992060.0,40.0,PULMONARY DISEASE,CRITICAL CARE (INTENSIVISTS),171 ASHLEY AVE,,CHARLESTON,SC,294258908,3145146000.0,171 ASHLEY AVE,32.785544099999996,-79.95170814565597
clinician_network,9032021175.0,SOUTH CAROLINA DEPT OF MENTAL HEALTH ACCOUNTING OFFICE,9032021175.0,163.0,PSYCHIATRY,,2100 CHARLIE HALL BLVD,,CHARLESTON,SC,294145832,8438524100.0,2100 CHARLIE HALL BLVD,32.813989772555296,-80.0454583761253
clinician_network,9032210083.0,EYE CENTER OF CHARLESTON,9032210083.0,4.0,OPHTHALMOLOGY,,2270 ASHLEY CROSSING DR,SUITE 100,CHARLESTON,SC,294145749,8435562357.0,2270 ASHLEY CROSSING DR,32.2742614,-80.9253747
clinician_network,9032215199.0,FETTER HEALTH CARE NETWORK INC,9032215199.0,20.0,NURSE PRACTITIONER,"HOSPITALIST, PEDIATRIC MEDICINE",51 NASSAU ST,,CHARLESTON,SC,294035513,8437224112.0,51 NASSAU ST,40.70908045,-74.00923874929356
clinician_network,9032429485.0,NORTHERN TIDES SPEECH AND LANGUAGE LLC,9032429485.0,4.0,QUALIFIED SPEECH LANGUAGE PATHOLOGIST,,1744 SAM RITTENBERG BLVD,SUITE E,CHARLESTON,SC,294074942,6074236613.0,1744 SAM RITTENBERG BLVD,32.80278179310345,-80.01577203448277
clinician_network,9133244346.0,"INTEGRATED REGIONAL LABORATORIES PATHOLOGY SERVICES, LLC",9133244346.0,120.0,DENTIST,"MAXILLOFACIAL SURGERY, PATHOLOGY",9330 MEDICAL PLAZA DR,,CHARLESTON,SC,294069104,8438474179.0,9330 MEDICAL PLAZA DR,32.9768967,-80.0737924
clinician_network,9133294077.0,IMAGINE PHYSICAL THERAPY ON DANIEL ISLAND LLC,9133294077.0,2.0,PHYSICAL THERAPY,,142 SPORTSMAN ISLAND DR,SUITE F,CHARLESTON,SC,294928524,8433778820.0,142 SPORTSMAN ISLAND DR,32.87491330612245,-79.92828792857142
clinician_network,9335559939.0,CLEARLINE DERMATOLOGY LLC,9335559939.0,5.0,PHYSICIAN ASSISTANT,,776 DANIEL ELLIS DR,SUITE 1A,CHARLESTON,SC,294123095,8437236529.0,776 DANIEL ELLIS DR,32.7499065038878,-79.96905736946549
clinician_network,9436054715.0,CHARLESTON RADIOLOGISTS PA,9436054715.0,24.0,DIAGNOSTIC RADIOLOGY,INTERVENTIONAL RADIOLOGY,8330 MEDICAL PLAZA DR,,CHARLESTON,SC,294069104,8667179687.0,8330 MEDICAL PLAZA DR,35.3182630562693,-80.77593214076832
clinician_network,9436162278.0,CAROLINA FOOT SPECIALISTE LLC,9436162278.0,2.0,PODIATRY,,615 WESLEY DR,SUITE 340,CHARLESTON,SC,294077274,8432255575.0,615 WESLEY DR,38.8690669,-90.06630220193563
clinician_network,9537341003.0,"SURGICAL NEUROMONITORING, PLLC",9537341003.0,5.0,NEUROLOGY,,171 ASHLEY AVE,,CHARLESTON,SC,294258908,8437921414.0,171 ASHLEY AVE,32.785544099999996,-79.95170814565597
clinician_network,9537581897.0,LIVE LIFE NOW HEALTH GROUP PA,9537581897.0,10.0,FAMILY PRACTICE,,170 MEETING ST,SUITE 110,CHARLESTON,SC,294013178,6469603553.0,170 MEETING ST,33.010193772951844,-80.15047818481507
clinician_network,9638070436.0,CAROLINA EYECARE PHYSICIANS LLC,9638070436.0,27.0,OPTOMETRY,,2060 CHARLIE HALL BLVD,SUITE 201,CHARLESTON,SC,294146066,8888561878.0,2060 CHARLIE HALL BLVD,32.814788397544795,-80.0447586083405
clinician_network,9739260019.0,AMERICAN CURRENT CARE PA,9739260019.0,424.0,GENERAL SURGERY,,4115 DORCHESTER RD,SUITE 100,CHARLESTON,SC,294057501,8435546737.0,4115 DORCHE,45.9195051,4.7084732
clinician_network,9931105046.0,COASTAL CAROLINA MULTISPECIALTY ASSOCIATES LLC,9931105046.0,47.0,PHYSICIAN ASSISTANT,INTERNAL MEDICINE,316 CALHOUN ST,,CHARLESTON,SC,294011113,8438242000.0,316 CALHOUN ST,32.78266495,-79.94908809987882
